#aV2008  7  8  0  0   .00000000      96 DD+AD WGS84 FIT  NGA
## 1487 172800.00000000   900.00000000 54655  .0000000000000
+   31     2  3  4  5  6  7  8  9 10 11 12 13 14 15 16 17 18
+         19 20 21 22 23 24 25 26 27 28 29 30 31 32  0  0  0
+          0  0  0  0  0  0  0  0  0  0  0  0  0  0  0  0  0
+          0  0  0  0  0  0  0  0  0  0  0  0  0  0  0  0  0
+          0  0  0  0  0  0  0  0  0  0  0  0  0  0  0  0  0
++         0  0  0  0  0  0  0  0  0  0  0  0  0  0  0  0  0
++         0  0  0  0  0  0  0  0  0  0  0  0  0  0  0  0  0
++         0  0  0  0  0  0  0  0  0  0  0  0  0  0  0  0  0
++         0  0  0  0  0  0  0  0  0  0  0  0  0  0  0  0  0
++         0  0  0  0  0  0  0  0  0  0  0  0  0  0  0  0  0
%c cc cc ccc ccc cccc cccc cccc cccc ccccc ccccc ccccc ccccc
%c cc cc ccc ccc cccc cccc cccc cccc ccccc ccccc ccccc ccccc
%f  0.0000000  0.000000000  0.00000000000  0.000000000000000
%f  0.0000000  0.000000000  0.00000000000  0.000000000000000
%i    0    0    0    0      0      0      0      0         0
%i    0    0    0    0      0      0      0      0         0
/*      NGA, ST. LOUIS,MO.                                  
/*   EPHEMERIS COMPUTED FROM  3 DAYS OF DATA                
/* CCCCCCCCCCCCCCCCCCCCCCCCCCCCCCCCCCCCCCCCCCCCCCCCCCCCCCCCC
/* CCCCCCCCCCCCCCCCCCCCCCCCCCCCCCCCCCCCCCCCCCCCCCCCCCCCCCCCC
*  2008  7  8  1  0   .00000000                                                 
P  2 -15850.199264  -1780.456793 -21349.369476    203.323414                    
V  2   8632.159760 -25457.812348  -4675.355981      -.022377                    
P  3  21624.161594   6490.863495  14000.578917    252.548402                    
V  3  11014.171109  14721.606377 -23044.042288       .052165                    
P  4 -11034.933849 -12795.169103 -20513.308653   -109.773041                    
V  4  10489.901008 -23795.229963   9602.951047      -.096062                    
P  5 -16147.503787  15254.576269 -14730.091355   -365.726733                    
V  5 -18363.490871   2226.048266  23010.470541       .168597                    
P  6  21313.718772  11130.208809  11458.245157    158.395176                    
V  6   7242.402218  12733.662772 -26307.142314       .043622                    
P  7   6766.713164 -25359.063065   3756.056750     -7.781094                    
V  7   4305.504977  -3524.061541 -31375.078821       .059971                    
P  8  -1559.005449 -21471.074637  15143.390613   -160.835455                    
V  8   9545.276591 -17134.738709 -23646.035214      -.015585                    
P  9 -14042.502321  19579.395082  10366.474127      4.248271                    
V  9   2183.613099 -14195.000899  28200.346612       .017531                    
P 10 -26301.985366    202.101583  -4927.487337     -2.726746                    
V 10   5640.448407  -3188.413726 -30787.606968      -.002329                    
P 11  11563.193789 -21612.563034   9655.322202     23.701594                    
V 11   2525.694072  13350.041812  26768.088087      -.005065                    
P 12 -20763.671937  11565.363529 -11665.146053   -357.434240                    
V 12 -15162.965272     52.113172  26941.333015       .006678                    
P 13  -2221.439641 -20852.154501 -16428.384565    262.924360                    
V 13  13159.701307  15834.317022 -22026.454520       .015126                    
P 14  15353.746063  21690.198542   1646.331894   -246.752199                    
V 14  -2632.620200   -439.886904  32209.267493       .043952                    
P 15 -16750.614535   2482.432828  20485.199751   -139.092794                    
V 15 -15973.098693 -20504.591291 -10576.511387      -.062885                    
P 16  24565.418683   3246.855192  -9773.678068    117.981252                    
V 16 -11984.909902   3995.615589 -28392.676027      -.016733                    
P 17 -15984.703106 -21296.207074   1161.784543     38.600370                    
V 17   3010.353965   -594.010920  31569.918003       .000241                    
P 18  -1979.018999  15780.851481  21419.412598   -158.956294                    
V 18 -26718.792689   2788.470574  -4929.096802       .043388                    
P 19  16392.368440  -2334.357083  20892.070463     33.208060                    
V 19  14636.852819  21866.207946  -8886.131889       .005261                    
P 20  19315.244789 -12974.348796 -12885.928319    110.424936                    
V 20  16429.661623   -361.311075  25253.770621      -.008662                    
P 21  -2597.666089  24515.311628   9222.773441     58.770252                    
V 21  -7816.047837   9430.473329 -28480.960340      -.012767                    
P 22  12939.881647  12682.932951  19595.481206    211.483639                    
V 22 -24238.977769   4308.497281  13263.705519       .001680                    
P 23   8168.434904 -13279.524642 -21536.847019    363.241346                    
V 23  17634.535263  20707.845740  -6348.575316       .018620                    
P 24 -13019.121784  22971.828924  -3856.606252    107.767752                    
V 24   -559.424251  -5774.347170 -30887.736374       .028654                    
P 25   9103.687765 -24785.871795  -3301.345276   -183.962740                    
V 25   1236.401929   5110.897995 -31372.586522      -.090647                    
P 26 -18044.750845  -3645.683253  18858.089368    288.349953                    
V 26 -14167.643733 -20288.711962 -16521.956379       .069665                    
P 27   3059.387939 -25593.554059   6779.538881    201.186025                    
V 27   4594.618037  -6690.968351 -30490.505961       .027921                    
P 28 -11488.130602 -12889.272196  20657.712767    -20.812220                    
V 28  24933.685835  -4140.246370  11172.944093      -.004163                    
P 29   -645.283590  19498.174200 -17918.368807    -41.877636                    
V 29 -15487.678215 -17062.207421 -17858.621146       .004918                    
P 30  -8035.411955  16143.961162 -19815.326921     84.866369                    
V 30 -24240.394976   3675.131398  13152.562165       .018706                    
P 31  11238.566395  11277.471260 -21040.180386    -25.139010                    
V 31 -10180.899975  25214.078172   8107.115764       .004428                    
P 32  24885.202757  -6191.281747  -6130.266972    305.136161                    
V 32   8563.242316   2008.090625  30752.933555       .032211                    
EOF
